[{"OBJECT_NAME":"STARLINK-4323","OBJECT_ID":"2022-077AC","EPOCH":"2026-03-09T22:26:55.446144","MEAN_MOTION":15.01248487,"ECCENTRICITY":0.00036931,"INCLINATION":97.6018,"RA_OF_ASC_NODE":250.447,"ARG_OF_PERICENTER":169.7375,"MEAN_ANOMALY":190.3925,"EPHEMERIS_TYPE":0,"CLASSIFICATION_TYPE":"U","NORAD_CAT_ID":53069,"ELEMENT_SET_NO":999,"REV_AT_EPOCH":20095,"BSTAR":8.992699e-5,"MEAN_MOTION_DOT":1.097e-5,"MEAN_MOTION_DDOT":0},{"OBJECT_NAME":"QPS-SAR-9 (SUSANOO-I)","OBJECT_ID":"2025-050A","EPOCH":"2026-03-09T22:44:21.680160","MEAN_MOTION":15.02099025,"ECCENTRICITY":0.00041027,"INCLINATION":42.0195,"RA_OF_ASC_NODE":290.2117,"ARG_OF_PERICENTER":235.6113,"MEAN_ANOMALY":124.4326,"EPHEMERIS_TYPE":0,"CLASSIFICATION_TYPE":"U","NORAD_CAT_ID":63205,"ELEMENT_SET_NO":999,"REV_AT_EPOCH":5403,"BSTAR":0.00053180523,"MEAN_MOTION_DOT":6.925e-5,"MEAN_MOTION_DDOT":0}]
